[{"OBJECT_NAME":"STARLINK-33726","OBJECT_ID":"2025-069E","EPOCH":"2026-03-09T11:54:23.276736","MEAN_MOTION":15.30183515,"ECCENTRICITY":9.051e-5,"INCLINATION":53.1576,"RA_OF_ASC_NODE":143.4816,"ARG_OF_PERICENTER":96.3514,"MEAN_ANOMALY":263.759,"EPHEMERIS_TYPE":0,"CLASSIFICATION_TYPE":"U","NORAD_CAT_ID":63437,"ELEMENT_SET_NO":999,"REV_AT_EPOCH":5332,"BSTAR":0.0011991476,"MEAN_MOTION_DOT":0.00035307,"MEAN_MOTION_DDOT":0},{"OBJECT_NAME":"COSMOS 1862","OBJECT_ID":"1987-055A","EPOCH":"2026-03-09T22:37:02.390592","MEAN_MOTION":15.30492139,"ECCENTRICITY":0.00097484,"INCLINATION":82.4856,"RA_OF_ASC_NODE":47.1862,"ARG_OF_PERICENTER":26.6325,"MEAN_ANOMALY":333.5414,"EPHEMERIS_TYPE":0,"CLASSIFICATION_TYPE":"U","NORAD_CAT_ID":18152,"ELEMENT_SET_NO":999,"REV_AT_EPOCH":8987,"BSTAR":0.00034125048,"MEAN_MOTION_DOT":0.00010107,"MEAN_MOTION_DDOT":0}]
